     2.100          NAVIGATION                              RINEX VERSION / TYPE
fic2rin                                 05/06/2010 00:10:47 PGM / RUN BY / DATE
                                                            END OF HEADER
13 10  5  5 14  0  0.0  .304742250592D-03 -.341060513165D-12  .000000000000D+00
     .920000000000D+02  .382812500000D+02  .368229623956D-08  .162167042360D+01
     .173784792423D-05  .443706160877D-02  .732019543648D-05  .515355453110D+04
     .309600000000D+06  .931322574615D-08  .190730802980D+01 -.968575477600D-07
     .992814654647D+00  .251906250000D+03  .168076179854D+01 -.769389191005D-08
    -.134648465792D-09  .100000000000D+01  .158200000000D+04  .000000000000D+00
     .240000000000D+01  .000000000000D+00 -.107102096081D-07  .920000000000D+02
     .302406000000D+06  .400000000000D+01
14 10  5  5 14  0  0.0  .420305877924D-04  .443378667114D-11  .000000000000D+00
     .940000000000D+02  .544375000000D+02  .386266089533D-08  .143377743431D+01
     .277720391750D-05  .499231892172D-02  .795349478722D-05  .515373991966D+04
     .309600000000D+06 -.111758708954D-06  .188564174052D+01  .558793544769D-08
     .986086558349D+00  .241687500000D+03 -.212756854095D+01 -.785497004817D-08
    -.111433213069D-09  .100000000000D+01  .158200000000D+04  .000000000000D+00
     .240000000000D+01  .000000000000D+00 -.884756445885D-08  .940000000000D+02
     .302406000000D+06  .400000000000D+01
16 10  5  5 14  0  0.0 -.684224069118D-04 -.375166564481D-11  .000000000000D+00
     .920000000000D+02 -.720312500000D+02  .416303054979D-08  .307527896327D+01
    -.360608100891D-05  .591369369067D-02  .675953924656D-05  .515376180077D+04
     .309600000000D+06 -.186264514923D-08 -.232339780083D+01  .409781932831D-07
     .971785262848D+00  .255656250000D+03 -.236957971371D+00 -.792140138673D-08
     .328585115460D-10  .100000000000D+01  .158200000000D+04  .000000000000D+00
     .240000000000D+01  .000000000000D+00 -.977888703346D-08  .920000000000D+02
     .302406000000D+06  .400000000000D+01
17 10  5  5 14  0  0.0  .148823950440D-03  .250111042988D-11  .000000000000D+00
     .580000000000D+02 -.164375000000D+02  .451518807571D-08  .186409913366D+01
    -.782310962677D-06  .540693197399D-02  .901892781258D-05  .515360019302D+04
     .309600000000D+06 -.156462192535D-06 -.128013710945D+01  .745058059692D-08
     .959859978912D+00  .201375000000D+03 -.251291051546D+01 -.798461830569D-08
     .252510518077D-09  .100000000000D+01  .158200000000D+04  .000000000000D+00
     .240000000000D+01  .000000000000D+00 -.102445483208D-07  .580000000000D+02
     .302406000000D+06  .400000000000D+01
18 10  5  5 14  0  0.0  .662878155708D-04  .250111042988D-11  .000000000000D+00
     .480000000000D+02  .214375000000D+02  .510378402166D-08 -.293930103794D+01
     .104680657387D-05  .112671921961D-01  .778213143349D-05  .515368903160D+04
     .309600000000D+06  .577419996262D-07  .814250674935D+00 -.253319740295D-06
     .937758496377D+00  .214843750000D+03 -.234199408045D+01 -.815676833357D-08
    -.323584907182D-09  .100000000000D+01  .158200000000D+04  .000000000000D+00
     .240000000000D+01  .000000000000D+00 -.107102096081D-07  .480000000000D+02
     .302406000000D+06  .400000000000D+01
20 10  5  5 14  0  0.0  .566188246012D-04 -.568434188608D-12  .000000000000D+00
     .390000000000D+02  .164062500000D+02  .522843207090D-08 -.278561427275D+01
     .972300767899D-06  .429285329301D-02  .715255737305D-05  .515361797714D+04
     .309600000000D+06  .931322574615D-07  .760314171257D+00 -.260770320892D-07
     .937653665130D+00  .229531250000D+03  .131762430039D+01 -.831677499849D-08
    -.238581366443D-09  .100000000000D+01  .158200000000D+04  .000000000000D+00
     .240000000000D+01  .000000000000D+00 -.791624188423D-08  .390000000000D+02
     .302406000000D+06  .400000000000D+01
21 10  5  5 14  0  0.0 -.580721534789D-04 -.261479726760D-11  .000000000000D+00
     .720000000000D+02  .151562500000D+02  .539522473277D-08 -.183340782187D+01
     .523403286934D-06  .164579944685D-01  .639446079731D-05  .515367485428D+04
     .309600000000D+06  .191852450371D-06 -.242358181317D+00 -.124797224998D-06
     .932938826453D+00  .236125000000D+03 -.249074893040D+01 -.826284418063D-08
     .296798077117D-09  .100000000000D+01  .158200000000D+04  .000000000000D+00
     .240000000000D+01  .000000000000D+00 -.121071934700D-07  .720000000000D+02
     .302406000000D+06  .400000000000D+01
22 10  5  5 14  0  0.0  .172810629010D-03 -.113686837722D-11  .000000000000D+00
     .870000000000D+02  .203437500000D+02  .521628870793D-08  .239875265697D+01
     .998377799988D-06  .522563140839D-02  .772438943386D-05  .515365507698D+04
     .309600000000D+06  .540167093277D-07  .819206222153D+00 -.104308128357D-06
     .935436804423D+00  .216781250000D+03 -.193230646757D+01 -.825177229087D-08
    -.333228166005D-09  .100000000000D+01  .158200000000D+04  .000000000000D+00
     .240000000000D+01  .000000000000D+00 -.176951289177D-07  .870000000000D+02
     .302406000000D+06  .400000000000D+01
23 10  5  5 14  0  0.0  .371925998479D-03 -.136424205266D-11  .000000000000D+00
     .700000000000D+02  .352812500000D+02  .432268005698D-08  .715417589911D+00
     .176765024662D-05  .658735691104D-02  .702030956745D-05  .515369611359D+04
     .309600000000D+06  .894069671631D-07  .184707414656D+01  .223517417908D-07
     .967914721008D+00  .242343750000D+03  .300700971281D+01 -.806462163815D-08
    -.175364447490D-09  .100000000000D+01  .158200000000D+04  .000000000000D+00
     .240000000000D+01  .000000000000D+00 -.200234353542D-07  .700000000000D+02
     .302406000000D+06  .400000000000D+01
24 10  5  5 14  0  0.0  .284744892269D-03  .318323145621D-11  .000000000000D+00
     .760000000000D+02  .185937500000D+02  .505092467700D-08  .210504868432D+01
     .830739736557D-06  .569416128565D-02  .709109008312D-05  .515487214470D+04
     .309600000000D+06  .987201929092D-07 -.204292554039D+00  .856816768646D-07
     .949560242733D+00  .235500000000D+03 -.476454667369D+00 -.818748389871D-08
     .785747015231D-11  .100000000000D+01  .158200000000D+04  .000000000000D+00
     .240000000000D+01  .000000000000D+00 -.139698386192D-08  .760000000000D+02
     .302406000000D+06  .400000000000D+01
26 10  5  5 14  0  0.0 -.478858128190D-04 -.488853402203D-11  .000000000000D+00
     .190000000000D+02  .582500000000D+02  .389409077594D-08 -.502582871417D+00
     .324286520481D-05  .194484943058D-01  .742822885513D-05  .515235836601D+04
     .309600000000D+06 -.819563865662D-07  .190398019107D+01  .253319740295D-06
     .990551286311D+00  .253062500000D+03  .108710559116D+01 -.813676750046D-08
    -.782175437889D-10  .100000000000D+01  .158200000000D+04  .000000000000D+00
     .240000000000D+01  .000000000000D+00 -.605359673500D-08  .190000000000D+02
     .302406000000D+06  .400000000000D+01
27 10  5  5 14  0  0.0  .149225816131D-03  .352429196937D-11  .000000000000D+00
     .960000000000D+02 -.550000000000D+01  .416338770752D-08  .146340569034D+01
    -.888481736183D-06  .215299834963D-01  .430829823017D-05  .515363388824D+04
     .309600000000D+06  .184401869774D-06  .283285176440D+01 -.553205609322D-06
     .978379462643D+00  .303437500000D+03 -.142621887746D+01 -.807390773924D-08
    -.121433629627D-10  .100000000000D+01  .158200000000D+04  .000000000000D+00
     .340000000000D+01  .000000000000D+00 -.419095158577D-08  .960000000000D+02
     .302406000000D+06  .400000000000D+01
28 10  5  5 14  0  0.0 -.169519335032D-04  .909494701773D-12  .000000000000D+00
     .620000000000D+02 -.654375000000D+02  .405231165219D-08  .252582797677D+01
    -.346265733242D-05  .159480655566D-01  .692345201969D-05  .515367324829D+04
     .309600000000D+06  .119209289551D-06 -.231565411901D+01 -.171363353729D-06
     .970018587385D+00  .249312500000D+03 -.195658020644D+01 -.763567519938D-08
     .671456540289D-10  .100000000000D+01  .158200000000D+04  .000000000000D+00
     .240000000000D+01  .000000000000D+00 -.107102096081D-07  .620000000000D+02
     .302406000000D+06  .400000000000D+01
29 10  5  5 14  0  0.0  .117689836770D-03  .272848410532D-11  .000000000000D+00
     .130000000000D+02 -.183125000000D+02  .448732977244D-08 -.164326516594D+01
    -.793486833572D-06  .305716239382D-02  .968016684055D-05  .515374800491D+04
     .309600000000D+06 -.316649675369D-07 -.127187957473D+01  .987201929092D-07
     .960188803398D+00  .192281250000D+03 -.130098796966D+01 -.793604485384D-08
     .343942898031D-09  .100000000000D+01  .158200000000D+04  .000000000000D+00
     .240000000000D+01  .000000000000D+00 -.884756445885D-08  .130000000000D+02
     .302406000000D+06  .400000000000D+01
30 10  5  5 14  0  0.0  .239868648350D-03  .352429196937D-11  .000000000000D+00
     .940000000000D+02 -.784687500000D+02  .442982737723D-08  .298047962615D+01
    -.398792326450D-05  .121320530307D-01  .672228634357D-05  .515374510765D+04
     .309600000000D+06  .109896063805D-06 -.239402252056D+01  .130385160446D-07
     .955871414693D+00  .245781250000D+03  .147835557204D+01 -.788354266691D-08
    -.928610108910D-11  .100000000000D+01  .158200000000D+04  .000000000000D+00
     .240000000000D+01  .000000000000D+00 -.791624188423D-08  .940000000000D+02
     .302406000000D+06  .400000000000D+01
31 10  5  5 14  0  0.0 -.383243896067D-04  .216004991671D-11  .000000000000D+00
     .330000000000D+02  .937500000000D+00  .422839041515D-08 -.943539373699D+00
     .428408384323D-07  .743773474824D-02  .496581196785D-05  .515367892265D+04
     .309600000000D+06 -.122934579849D-06  .288863042426D+01  .260770320892D-07
     .976888665734D+00  .296187500000D+03 -.105679382030D+01 -.819319842246D-08
     .125719522437D-09  .100000000000D+01  .158200000000D+04  .000000000000D+00
     .240000000000D+01  .000000000000D+00 -.130385160446D-07  .330000000000D+02
     .302406000000D+06  .400000000000D+01
